{"type": "FeatureCollection", "features": [ {"type": "Feature", "properties": {"norad_id": 60989, "name": "SENTINEL-2C", "group": "resource", "lat": -79.30766924348711, "lon": 125.82268350150376, "alt_km": 797.3130740311954, "timestamp": "2025-12-26T13:39:18.618813+00:00", "meta": {"OBJECT_NAME": "SENTINEL-2C", "OBJECT_ID": "2024-157A", "EPOCH": "2025-12-26T03:58:31.725408", "MEAN_MOTION": 14.30818046, "ECCENTRICITY": 0.00013866, "INCLINATION": 98.5666, "RA_OF_ASC_NODE": 72.4538, "ARG_OF_PERICENTER": 102.8528, "MEAN_ANOMALY": 257.2809, "EPHEMERIS_TYPE": 0, "CLASSIFICATION_TYPE": "U", "NORAD_CAT_ID": 60989, "ELEMENT_SET_NO": 999, "REV_AT_EPOCH": 6824, "BSTAR": 0.0001005445, "MEAN_MOTION_DOT": 2.2e-06, "MEAN_MOTION_DDOT": 0}, "tle": {"line1": "1 60989U 24157A   25360.16564497  .00000220  00000+0  10054-3 0  9995", "line2": "2 60989  98.5666  72.4538 0001386 102.8528 257.2809 14.30818046 68245"}}, "geometry": {"type": "Point", "coordinates": [125.82268350150376, -79.30766924348711]}}, {"type": "Feature", "properties": {"norad_id": 61735, "name": "IONOSFERA-M 1", "group": "resource", "lat": 39.22790281745416, "lon": 57.524573310514796, "alt_km": 813.2953039553331, "timestamp": "2025-12-26T13:39:18.618826+00:00", "meta": {"OBJECT_NAME": "IONOSFERA-M 1", "OBJECT_ID": "2024-199A", "EPOCH": "2025-12-26T06:14:50.090208", "MEAN_MOTION": 14.2271696, "ECCENTRICITY": 2.906e-05, "INCLINATION": 98.7395, "RA_OF_ASC_NODE": 230.0041, "ARG_OF_PERICENTER": 4.0801, "MEAN_ANOMALY": 356.038, "EPHEMERIS_TYPE": 0, "CLASSIFICATION_TYPE": "U", "NORAD_CAT_ID": 61735, "ELEMENT_SET_NO": 999, "REV_AT_EPOCH": 10311, "BSTAR": 4.31104e-05, "MEAN_MOTION_DOT": 5.2e-07, "MEAN_MOTION_DDOT": 0}, "tle": {"line1": "1 61735U 24199A   25360.26030197  .00000052  00000+0  43110-4 0  9990", "line2": "2 61735  98.7395 230.0041 0000290   4.0801 356.0380 14.22716960103118"}}, "geometry": {"type": "Point", "coordinates": [57.524573310514796, 39.22790281745416]}}, {"type": "Feature", "properties": {"norad_id": 61736, "name": "IONOSFERA-M 2", "group": "resource", "lat": -36.70781151114473, "lon": -123.19162218503017, "alt_km": 823.3230954885285, "timestamp": "2025-12-26T13:39:18.618837+00:00", "meta": {"OBJECT_NAME": "IONOSFERA-M 2", "OBJECT_ID": "2024-199B", "EPOCH": "2025-12-26T07:04:41.865600", "MEAN_MOTION": 14.22719163, "ECCENTRICITY": 0.00018718, "INCLINATION": 98.7394, "RA_OF_ASC_NODE": 229.9509, "ARG_OF_PERICENTER": 93.0182, "MEAN_ANOMALY": 267.1211, "EPHEMERIS_TYPE": 0, "CLASSIFICATION_TYPE": "U", "NORAD_CAT_ID": 61736, "ELEMENT_SET_NO": 999, "REV_AT_EPOCH": 10624, "BSTAR": 4.8915171e-05, "MEAN_MOTION_DOT": 6.5e-07, "MEAN_MOTION_DDOT": 0}, "tle": {"line1": "1 61736U 24199B   25360.29492900  .00000065  00000+0  48915-4 0  9990", "line2": "2 61736  98.7394 229.9509 0001871  93.0182 267.1211 14.22719163106240"}}, "geometry": {"type": "Point", "coordinates": [-123.19162218503017, -36.70781151114473]}}, {"type": "Feature", "properties": {"norad_id": 63772, "name": "BIOMASS", "group": "resource", "lat": -42.24917719664154, "lon": -2.0271013064375643, "alt_km": 676.1041063482335, "timestamp": "2025-12-26T13:39:18.618847+00:00", "meta": {"OBJECT_NAME": "BIOMASS", "OBJECT_ID": "2025-090A", "EPOCH": "2025-12-26T06:05:53.376864", "MEAN_MOTION": 14.67541296, "ECCENTRICITY": 0.0001056, "INCLINATION": 98.0696, "RA_OF_ASC_NODE": 185.0668, "ARG_OF_PERICENTER": 85.1295, "MEAN_ANOMALY": 275.003, "EPHEMERIS_TYPE": 0, "CLASSIFICATION_TYPE": "U", "NORAD_CAT_ID": 63772, "ELEMENT_SET_NO": 999, "REV_AT_EPOCH": 3532, "BSTAR": 0.00024829463, "MEAN_MOTION_DOT": 1.36e-05, "MEAN_MOTION_DDOT": 0}, "tle": {"line1": "1 63772U 25090A   25360.25409001  .00001360  00000+0  24829-3 0  9995", "line2": "2 63772  98.0696 185.0668 0001056  85.1295 275.0030 14.67541296 35326"}}, "geometry": {"type": "Point", "coordinates": [-2.0271013064375643, -42.24917719664154]}}, {"type": "Feature", "properties": {"norad_id": 64694, "name": "GOSAT-GW (IBUKI GW)", "group": "resource", "lat": 71.60128655678304, "lon": -89.3280604274612, "alt_km": 660.9555589392003, "timestamp": "2025-12-26T13:39:18.618858+00:00", "meta": {"OBJECT_NAME": "GOSAT-GW (IBUKI GW)", "OBJECT_ID": "2025-141A", "EPOCH": "2025-12-26T06:46:35.840928", "MEAN_MOTION": 14.67562258, "ECCENTRICITY": 0.00014269, "INCLINATION": 98.044, "RA_OF_ASC_NODE": 295.5507, "ARG_OF_PERICENTER": 82.3167, "MEAN_ANOMALY": 277.82, "EPHEMERIS_TYPE": 0, "CLASSIFICATION_TYPE": "U", "NORAD_CAT_ID": 64694, "ELEMENT_SET_NO": 999, "REV_AT_EPOCH": 2648, "BSTAR": 0.00019927816, "MEAN_MOTION_DOT": 1.083e-05, "MEAN_MOTION_DDOT": 0}, "tle": {"line1": "1 64694U 25141A   25360.28235927  .00001083  00000+0  19928-3 0  9999", "line2": "2 64694  98.0440 295.5507 0001426  82.3167 277.8200 14.67562258 26481"}}, "geometry": {"type": "Point", "coordinates": [-89.3280604274612, 71.60128655678304]}}, {"type": "Feature", "properties": {"norad_id": 64876, "name": "IONOSFERA-M 3", "group": "resource", "lat": -55.555629664414475, "lon": -25.2384466542796, "alt_km": 827.5736248022558, "timestamp": "2025-12-26T13:39:18.618868+00:00", "meta": {"OBJECT_NAME": "IONOSFERA-M 3", "OBJECT_ID": "2025-155A", "EPOCH": "2025-12-26T07:09:46.946592", "MEAN_MOTION": 14.21444307, "ECCENTRICITY": 0.00018002, "INCLINATION": 98.5801, "RA_OF_ASC_NODE": 321.782, "ARG_OF_PERICENTER": 38.1512, "MEAN_ANOMALY": 321.9793, "EPHEMERIS_TYPE": 0, "CLASSIFICATION_TYPE": "U", "NORAD_CAT_ID": 64876, "ELEMENT_SET_NO": 999, "REV_AT_EPOCH": 2184, "BSTAR": 6.3014499e-05, "MEAN_MOTION_DOT": 9.5e-07, "MEAN_MOTION_DDOT": 0}, "tle": {"line1": "1 64876U 25155A   25360.29846003  .00000095  00000+0  63014-4 0  9998", "line2": "2 64876  98.5801 321.7820 0001800  38.1512 321.9793 14.21444307 21845"}}, "geometry": {"type": "Point", "coordinates": [-25.2384466542796, -55.555629664414475]}}, {"type": "Feature", "properties": {"norad_id": 64877, "name": "IONOSFERA-M 4", "group": "resource", "lat": 54.707049046324975, "lon": 154.27946175120917, "alt_km": 815.0028673184452, "timestamp": "2025-12-26T13:39:18.618879+00:00", "meta": {"OBJECT_NAME": "IONOSFERA-M 4", "OBJECT_ID": "2025-155B", "EPOCH": "2025-12-26T06:18:54.005184", "MEAN_MOTION": 14.21445437, "ECCENTRICITY": 0.0001247, "INCLINATION": 98.5802, "RA_OF_ASC_NODE": 321.667, "ARG_OF_PERICENTER": 51.0355, "MEAN_ANOMALY": 309.0934, "EPHEMERIS_TYPE": 0, "CLASSIFICATION_TYPE": "U", "NORAD_CAT_ID": 64877, "ELEMENT_SET_NO": 999, "REV_AT_EPOCH": 2183, "BSTAR": 6.3255768e-05, "MEAN_MOTION_DOT": 9.6e-07, "MEAN_MOTION_DDOT": 0}, "tle": {"line1": "1 64877U 25155B   25360.26312506  .00000096  00000+0  63256-4 0  9991", "line2": "2 64877  98.5802 321.6670 0001247  51.0355 309.0934 14.21445437 21831"}}, "geometry": {"type": "Point", "coordinates": [154.27946175120917, 54.707049046324975]}}, {"type": "Feature", "properties": {"norad_id": 64899, "name": "MICROCARB", "group": "resource", "lat": -80.50567795416704, "lon": 132.93842072113043, "alt_km": 674.0852962461067, "timestamp": "2025-12-26T13:39:18.618890+00:00", "meta": {"OBJECT_NAME": "MICROCARB", "OBJECT_ID": "2025-156A", "EPOCH": "2025-12-26T05:53:04.779744", "MEAN_MOTION": 14.72078556, "ECCENTRICITY": 0.0017664, "INCLINATION": 98.0009, "RA_OF_ASC_NODE": 75.3732, "ARG_OF_PERICENTER": 104.3556, "MEAN_ANOMALY": 255.9614, "EPHEMERIS_TYPE": 0, "CLASSIFICATION_TYPE": "U", "NORAD_CAT_ID": 64899, "ELEMENT_SET_NO": 999, "REV_AT_EPOCH": 2252, "BSTAR": 0.00012908325, "MEAN_MOTION_DOT": 7.64e-06, "MEAN_MOTION_DDOT": 0}, "tle": {"line1": "1 64899U 25156A   25360.24519421  .00000764  00000+0  12908-3 0  9998", "line2": "2 64899  98.0009  75.3732 0017664 104.3556 255.9614 14.72078556 22527"}}, "geometry": {"type": "Point", "coordinates": [132.93842072113043, -80.50567795416704]}}, {"type": "Feature", "properties": {"norad_id": 64900, "name": "CO3D 3", "group": "resource", "lat": -8.863988107346445, "lon": -104.42893817536297, "alt_km": 509.88733087304354, "timestamp": "2025-12-26T13:39:18.618900+00:00", "meta": {"OBJECT_NAME": "CO3D 3", "OBJECT_ID": "2025-156B", "EPOCH": "2025-12-26T06:30:29.771424", "MEAN_MOTION": 15.20198691, "ECCENTRICITY": 0.00012956, "INCLINATION": 97.4344, "RA_OF_ASC_NODE": 76.4444, "ARG_OF_PERICENTER": 67.2475, "MEAN_ANOMALY": 292.8897, "EPHEMERIS_TYPE": 0, "CLASSIFICATION_TYPE": "U", "NORAD_CAT_ID": 64900, "ELEMENT_SET_NO": 999, "REV_AT_EPOCH": 2326, "BSTAR": 1.9582185e-05, "MEAN_MOTION_DOT": 3.56e-06, "MEAN_MOTION_DDOT": 0}, "tle": {"line1": "1 64900U 25156B   25360.27117791  .00000356  00000+0  19582-4 0  9991", "line2": "2 64900  97.4344  76.4444 0001295  67.2475 292.8897 15.20198691 23269"}}, "geometry": {"type": "Point", "coordinates": [-104.42893817536297, -8.863988107346445]}}, {"type": "Feature", "properties": {"norad_id": 64901, "name": "CO3D 4", "group": "resource", "lat": -8.005470091883197, "lon": -104.31442777955237, "alt_km": 508.5826792774469, "timestamp": "2025-12-26T13:39:18.618911+00:00", "meta": {"OBJECT_NAME": "CO3D 4", "OBJECT_ID": "2025-156C", "EPOCH": "2025-12-26T06:30:43.267104", "MEAN_MOTION": 15.20193764, "ECCENTRICITY": 0.00013815, "INCLINATION": 97.4337, "RA_OF_ASC_NODE": 76.4444, "ARG_OF_PERICENTER": 149.4206, "MEAN_ANOMALY": 210.711, "EPHEMERIS_TYPE": 0, "CLASSIFICATION_TYPE": "U", "NORAD_CAT_ID": 64901, "ELEMENT_SET_NO": 999, "REV_AT_EPOCH": 2326, "BSTAR": 0.0002417136, "MEAN_MOTION_DOT": 5.167e-05, "MEAN_MOTION_DDOT": 0}, "tle": {"line1": "1 64901U 25156C   25360.27133411  .00005167  00000+0  24171-3 0  9993", "line2": "2 64901  97.4337  76.4444 0001381 149.4206 210.7110 15.20193764 23266"}}, "geometry": {"type": "Point", "coordinates": [-104.31442777955237, -8.005470091883197]}}]}